[
    {
        "Altitude(m)": 563364.239447465,
        "Argument of Periapsis(deg)": 0.013245982221427002,
        "Eccentricity": 0.0,
        "Inclination(deg)": 53.0,
        "Latitude(deg)": -32.241781747441166,
        "Longitude(deg)": 115.21303788541188,
        "Mean Anomaly(deg)": -41.63491426484478,
        "RAAN(deg)": 244.9802867370561,
        "Satellite Name": "Starlink Shell 1 1096",
        "Satellite Number": 1096,
        "Semi-Major Axis(m)": 6931778.249405717,
        "Time(s)": 380
    },
    {
        "Altitude(m)": 563188.9489675603,
        "Argument of Periapsis(deg)": 0.013594560700938237,
        "Eccentricity": 0.0,
        "Inclination(deg)": 53.0,
        "Latitude(deg)": -31.798720563370328,
        "Longitude(deg)": 115.69363730879726,
        "Mean Anomaly(deg)": -41.00808306128811,
        "RAAN(deg)": 244.9797679669786,
        "Satellite Name": "Starlink Shell 1 1096",
        "Satellite Number": 1096,
        "Semi-Major Axis(m)": 6931778.249405717,
        "Time(s)": 390
    },
    {
        "Altitude(m)": 563013.5580854759,
        "Argument of Periapsis(deg)": 0.013943139180449475,
        "Eccentricity": 0.0,
        "Inclination(deg)": 53.0,
        "Latitude(deg)": -31.353496682542936,
        "Longitude(deg)": 116.1692876452618,
        "Mean Anomaly(deg)": -40.38125185773145,
        "RAAN(deg)": 244.9792491969011,
        "Satellite Name": "Starlink Shell 1 1096",
        "Satellite Number": 1096,
        "Semi-Major Axis(m)": 6931778.249405717,
        "Time(s)": 400
    },
    {
        "Altitude(m)": 562838.1329848605,
        "Argument of Periapsis(deg)": 0.014291717659960712,
        "Eccentricity": 0.0,
        "Inclination(deg)": 53.0,
        "Latitude(deg)": -30.90616585657978,
        "Longitude(deg)": 116.64009786378074,
        "Mean Anomaly(deg)": -39.75442065417462,
        "RAAN(deg)": 244.97873042682366,
        "Satellite Name": "Starlink Shell 1 1096",
        "Satellite Number": 1096,
        "Semi-Major Axis(m)": 6931778.249405717,
        "Time(s)": 410
    },
    {
        "Altitude(m)": 562662.7397187331,
        "Argument of Periapsis(deg)": 0.014640296139471948,
        "Eccentricity": 0.0,
        "Inclination(deg)": 53.0,
        "Latitude(deg)": -30.456782592128235,
        "Longitude(deg)": 117.1061752224505,
        "Mean Anomaly(deg)": -39.127589450617926,
        "RAAN(deg)": 244.9782116567462,
        "Satellite Name": "Starlink Shell 1 1096",
        "Satellite Number": 1096,
        "Semi-Major Axis(m)": 6931778.249405717,
        "Time(s)": 420
    },
    {
        "Altitude(m)": 562487.4441798854,
        "Argument of Periapsis(deg)": 0.014988874618983185,
        "Eccentricity": 0.0,
        "Inclination(deg)": 53.0,
        "Latitude(deg)": -30.005400182835594,
        "Longitude(deg)": 117.5676257469123,
        "Mean Anomaly(deg)": -38.500758247061256,
        "RAAN(deg)": 244.9776928866687,
        "Satellite Name": "Starlink Shell 1 1096",
        "Satellite Number": 1096,
        "Semi-Major Axis(m)": 6931778.249405717,
        "Time(s)": 430
    },
    {
        "Altitude(m)": 562312.3120713625,
        "Argument of Periapsis(deg)": 0.015337453098494424,
        "Eccentricity": 0.0,
        "Inclination(deg)": 53.0,
        "Latitude(deg)": -29.5520707410694,
        "Longitude(deg)": 118.02455471347629,
        "Mean Anomaly(deg)": -37.87392704350454,
        "RAAN(deg)": 244.97717411659124,
        "Satellite Name": "Starlink Shell 1 1096",
        "Satellite Number": 1096,
        "Semi-Major Axis(m)": 6931778.249405717,
        "Time(s)": 440
    },
    {
        "Altitude(m)": 562137.4088769758,
        "Argument of Periapsis(deg)": 0.01568603157800566,
        "Eccentricity": 0.0,
        "Inclination(deg)": 53.0,
        "Latitude(deg)": -29.09684522933765,
        "Longitude(deg)": 118.47706562374138,
        "Mean Anomaly(deg)": -37.24709583994776,
        "RAAN(deg)": 244.97665534651375,
        "Satellite Name": "Starlink Shell 1 1096",
        "Satellite Number": 1096,
        "Semi-Major Axis(m)": 6931778.249405717,
        "Time(s)": 450
    },
    {
        "Altitude(m)": 561962.7998319966,
        "Argument of Periapsis(deg)": 0.0160346100575169,
        "Eccentricity": 0.0,
        "Inclination(deg)": 53.0,
        "Latitude(deg)": -28.639773491372587,
        "Longitude(deg)": 118.92526069613089,
        "Mean Anomaly(deg)": -36.62026463639109,
        "RAAN(deg)": 244.97613657643626,
        "Satellite Name": "Starlink Shell 1 1096",
        "Satellite Number": 1096,
        "Semi-Major Axis(m)": 6931778.249405717,
        "Time(s)": 460
    },
    {
        "Altitude(m)": 561788.5498938564,
        "Argument of Periapsis(deg)": 0.016383188537028134,
        "Eccentricity": 0.0,
        "Inclination(deg)": 53.0,
        "Latitude(deg)": -28.180904282842167,
        "Longitude(deg)": 119.36924136117212,
        "Mean Anomaly(deg)": -35.993433432834344,
        "RAAN(deg)": 244.97561780635883,
        "Satellite Name": "Starlink Shell 1 1096",
        "Satellite Number": 1096,
        "Semi-Major Axis(m)": 6931778.249405717,
        "Time(s)": 470
    },
    {
        "Altitude(m)": 561614.7237130211,
        "Argument of Periapsis(deg)": 0.01673176701653937,
        "Eccentricity": 0.0,
        "Inclination(deg)": 53.0,
        "Latitude(deg)": -27.720285301659544,
        "Longitude(deg)": 119.80910724736036,
        "Mean Anomaly(deg)": -35.366602229277674,
        "RAAN(deg)": 244.97509903628134,
        "Satellite Name": "Starlink Shell 1 1096",
        "Satellite Number": 1096,
        "Semi-Major Axis(m)": 6931778.249405717,
        "Time(s)": 480
    },
    {
        "Altitude(m)": 561441.3856040203,
        "Argument of Periapsis(deg)": 0.017080345496050607,
        "Eccentricity": 0.0,
        "Inclination(deg)": 53.0,
        "Latitude(deg)": -27.25796321786577,
        "Longitude(deg)": 120.24495668308651,
        "Mean Anomaly(deg)": -34.739771025720906,
        "RAAN(deg)": 244.97458026620384,
        "Satellite Name": "Starlink Shell 1 1096",
        "Satellite Number": 1096,
        "Semi-Major Axis(m)": 6931778.249405717,
        "Time(s)": 490
    },
    {
        "Altitude(m)": 561268.599516559,
        "Argument of Periapsis(deg)": 0.017428923975561842,
        "Eccentricity": 0.0,
        "Inclination(deg)": 53.0,
        "Latitude(deg)": -26.793983703064242,
        "Longitude(deg)": 120.67688720149975,
        "Mean Anomaly(deg)": -34.112939822164286,
        "RAAN(deg)": 244.97406149612644,
        "Satellite Name": "Starlink Shell 1 1096",
        "Satellite Number": 1096,
        "Semi-Major Axis(m)": 6931778.249405717,
        "Time(s)": 500
    },
    {
        "Altitude(m)": 561096.4290068551,
        "Argument of Periapsis(deg)": 0.01777750245507308,
        "Eccentricity": 0.0,
        "Inclination(deg)": 53.0,
        "Latitude(deg)": -26.328391459385895,
        "Longitude(deg)": 121.10499453520141,
        "Mean Anomaly(deg)": -33.48610861860751,
        "RAAN(deg)": 244.97354272604895,
        "Satellite Name": "Starlink Shell 1 1096",
        "Satellite Number": 1096,
        "Semi-Major Axis(m)": 6931778.249405717,
        "Time(s)": 510
    },
    {
        "Altitude(m)": 560924.9372091237,
        "Argument of Periapsis(deg)": 0.018126080934584315,
        "Eccentricity": 0.0,
        "Inclination(deg)": 53.0,
        "Latitude(deg)": -25.861230247974273,
        "Longitude(deg)": 121.52937312628718,
        "Mean Anomaly(deg)": -32.85927741505071,
        "RAAN(deg)": 244.97302395597143,
        "Satellite Name": "Starlink Shell 1 1096",
        "Satellite Number": 1096,
        "Semi-Major Axis(m)": 6931778.249405717,
        "Time(s)": 520
    },
    {
        "Altitude(m)": 560754.1868072617,
        "Argument of Periapsis(deg)": 0.018474659414095554,
        "Eccentricity": 0.0,
        "Inclination(deg)": 53.0,
        "Latitude(deg)": -25.39254291697567,
        "Longitude(deg)": 121.9501166386615,
        "Mean Anomaly(deg)": -32.23244621149409,
        "RAAN(deg)": 244.972505185894,
        "Satellite Name": "Starlink Shell 1 1096",
        "Satellite Number": 1096,
        "Semi-Major Axis(m)": 6931778.249405717,
        "Time(s)": 530
    },
    {
        "Altitude(m)": 560584.240006732,
        "Argument of Periapsis(deg)": 0.018823237893606792,
        "Eccentricity": 0.0,
        "Inclination(deg)": 53.0,
        "Latitude(deg)": -24.922371429023872,
        "Longitude(deg)": 122.36731695955605,
        "Mean Anomaly(deg)": -31.605615007937423,
        "RAAN(deg)": 244.97198641581647,
        "Satellite Name": "Starlink Shell 1 1096",
        "Satellite Number": 1096,
        "Semi-Major Axis(m)": 6931778.249405717,
        "Time(s)": 540
    },
    {
        "Altitude(m)": 560415.1585066658,
        "Argument of Periapsis(deg)": 0.019171816373118027,
        "Eccentricity": 0.0,
        "Inclination(deg)": 53.0,
        "Latitude(deg)": -24.450756888216166,
        "Longitude(deg)": 122.781064715815,
        "Mean Anomaly(deg)": -30.978783804380654,
        "RAAN(deg)": 244.97146764573904,
        "Satellite Name": "Starlink Shell 1 1096",
        "Satellite Number": 1096,
        "Semi-Major Axis(m)": 6931778.249405717,
        "Time(s)": 550
    },
    {
        "Altitude(m)": 560247.0034722292,
        "Argument of Periapsis(deg)": 0.019520394852629266,
        "Eccentricity": 0.0,
        "Inclination(deg)": 53.0,
        "Latitude(deg)": -23.977739566573455,
        "Longitude(deg)": 123.19144979190581,
        "Mean Anomaly(deg)": -30.35195260082393,
        "RAAN(deg)": 244.97094887566158,
        "Satellite Name": "Starlink Shell 1 1096",
        "Satellite Number": 1096,
        "Semi-Major Axis(m)": 6931778.249405717,
        "Time(s)": 560
    }
]